<?xml version="1.0" encoding="UTF-8"?>
<ndm xmlns:xsi="http://www.w3.org/2001/XMLSchema-instance" xsi:noNamespaceSchemaLocation="https://sanaregistry.org/r/ndmxml_unqualified/ndmxml-2.0.0-master-2.0.xsd">
<omm id="CCSDS_OMM_VERS" version="2.0">
<header><CREATION_DATE/><ORIGINATOR/></header><body><segment><metadata><OBJECT_NAME>ONEWEB-0173</OBJECT_NAME><OBJECT_ID>2021-025AD</OBJECT_ID><CENTER_NAME>EARTH</CENTER_NAME><REF_FRAME>TEME</REF_FRAME><TIME_SYSTEM>UTC</TIME_SYSTEM><MEAN_ELEMENT_THEORY>SGP4</MEAN_ELEMENT_THEORY></metadata><data><meanElements><EPOCH>2024-10-26T20:02:52.567296</EPOCH><MEAN_MOTION>13.13469895</MEAN_MOTION><ECCENTRICITY>.0001609</ECCENTRICITY><INCLINATION>87.8891</INCLINATION><RA_OF_ASC_NODE>79.2379</RA_OF_ASC_NODE><ARG_OF_PERICENTER>79.8149</ARG_OF_PERICENTER><MEAN_ANOMALY>280.3161</MEAN_ANOMALY></meanElements><tleParameters><EPHEMERIS_TYPE>0</EPHEMERIS_TYPE><CLASSIFICATION_TYPE>U</CLASSIFICATION_TYPE><NORAD_CAT_ID>48069</NORAD_CAT_ID><ELEMENT_SET_NO>999</ELEMENT_SET_NO><REV_AT_EPOCH>17525</REV_AT_EPOCH><BSTAR>.13886E-2</BSTAR><MEAN_MOTION_DOT>.52E-5</MEAN_MOTION_DOT><MEAN_MOTION_DDOT>0</MEAN_MOTION_DDOT></tleParameters></data></segment></body></omm>
<omm id="CCSDS_OMM_VERS" version="2.0">
<header><CREATION_DATE/><ORIGINATOR/></header><body><segment><metadata><OBJECT_NAME>ONEWEB-0171</OBJECT_NAME><OBJECT_ID>2021-025AE</OBJECT_ID><CENTER_NAME>EARTH</CENTER_NAME><REF_FRAME>TEME</REF_FRAME><TIME_SYSTEM>UTC</TIME_SYSTEM><MEAN_ELEMENT_THEORY>SGP4</MEAN_ELEMENT_THEORY></metadata><data><meanElements><EPOCH>2024-10-26T19:05:43.620864</EPOCH><MEAN_MOTION>13.13468539</MEAN_MOTION><ECCENTRICITY>.0001663</ECCENTRICITY><INCLINATION>87.8893</INCLINATION><RA_OF_ASC_NODE>79.2826</RA_OF_ASC_NODE><ARG_OF_PERICENTER>91.9986</ARG_OF_PERICENTER><MEAN_ANOMALY>268.1333</MEAN_ANOMALY></meanElements><tleParameters><EPHEMERIS_TYPE>0</EPHEMERIS_TYPE><CLASSIFICATION_TYPE>U</CLASSIFICATION_TYPE><NORAD_CAT_ID>48070</NORAD_CAT_ID><ELEMENT_SET_NO>999</ELEMENT_SET_NO><REV_AT_EPOCH>17506</REV_AT_EPOCH><BSTAR>-.65333E-3</BSTAR><MEAN_MOTION_DOT>-.226E-5</MEAN_MOTION_DOT><MEAN_MOTION_DDOT>0</MEAN_MOTION_DDOT></tleParameters></data></segment></body></omm>
<omm id="CCSDS_OMM_VERS" version="2.0">
<header><CREATION_DATE/><ORIGINATOR/></header><body><segment><metadata><OBJECT_NAME>ONEWEB-0172</OBJECT_NAME><OBJECT_ID>2021-025AF</OBJECT_ID><CENTER_NAME>EARTH</CENTER_NAME><REF_FRAME>TEME</REF_FRAME><TIME_SYSTEM>UTC</TIME_SYSTEM><MEAN_ELEMENT_THEORY>SGP4</MEAN_ELEMENT_THEORY></metadata><data><meanElements><EPOCH>2024-10-26T20:25:43.650624</EPOCH><MEAN_MOTION>13.13468877</MEAN_MOTION><ECCENTRICITY>.0001597</ECCENTRICITY><INCLINATION>87.8893</INCLINATION><RA_OF_ASC_NODE>79.2380</RA_OF_ASC_NODE><ARG_OF_PERICENTER>87.5932</ARG_OF_PERICENTER><MEAN_ANOMALY>272.5380</MEAN_ANOMALY></meanElements><tleParameters><EPHEMERIS_TYPE>0</EPHEMERIS_TYPE><CLASSIFICATION_TYPE>U</CLASSIFICATION_TYPE><NORAD_CAT_ID>48071</NORAD_CAT_ID><ELEMENT_SET_NO>999</ELEMENT_SET_NO><REV_AT_EPOCH>17596</REV_AT_EPOCH><BSTAR>.75791E-3</BSTAR><MEAN_MOTION_DOT>.29E-5</MEAN_MOTION_DOT><MEAN_MOTION_DDOT>0</MEAN_MOTION_DDOT></tleParameters></data></segment></body></omm>
<omm id="CCSDS_OMM_VERS" version="2.0">
<header><CREATION_DATE/><ORIGINATOR/></header><body><segment><metadata><OBJECT_NAME>ONEWEB-0174</OBJECT_NAME><OBJECT_ID>2021-025AG</OBJECT_ID><CENTER_NAME>EARTH</CENTER_NAME><REF_FRAME>TEME</REF_FRAME><TIME_SYSTEM>UTC</TIME_SYSTEM><MEAN_ELEMENT_THEORY>SGP4</MEAN_ELEMENT_THEORY></metadata><data><meanElements><EPOCH>2024-10-26T20:00:33.025248</EPOCH><MEAN_MOTION>13.13469398</MEAN_MOTION><ECCENTRICITY>.0001454</ECCENTRICITY><INCLINATION>87.8892</INCLINATION><RA_OF_ASC_NODE>79.2557</RA_OF_ASC_NODE><ARG_OF_PERICENTER>95.0970</ARG_OF_PERICENTER><MEAN_ANOMALY>265.0325</MEAN_ANOMALY></meanElements><tleParameters><EPHEMERIS_TYPE>0</EPHEMERIS_TYPE><CLASSIFICATION_TYPE>U</CLASSIFICATION_TYPE><NORAD_CAT_ID>48072</NORAD_CAT_ID><ELEMENT_SET_NO>999</ELEMENT_SET_NO><REV_AT_EPOCH>17528</REV_AT_EPOCH><BSTAR>.81181E-3</BSTAR><MEAN_MOTION_DOT>.309E-5</MEAN_MOTION_DOT><MEAN_MOTION_DDOT>0</MEAN_MOTION_DDOT></tleParameters></data></segment></body></omm>
<omm id="CCSDS_OMM_VERS" version="2.0">
<header><CREATION_DATE/><ORIGINATOR/></header><body><segment><metadata><OBJECT_NAME>ONEWEB-0175</OBJECT_NAME><OBJECT_ID>2021-025AH</OBJECT_ID><CENTER_NAME>EARTH</CENTER_NAME><REF_FRAME>TEME</REF_FRAME><TIME_SYSTEM>UTC</TIME_SYSTEM><MEAN_ELEMENT_THEORY>SGP4</MEAN_ELEMENT_THEORY></metadata><data><meanElements><EPOCH>2024-10-26T20:41:41.913024</EPOCH><MEAN_MOTION>13.13466495</MEAN_MOTION><ECCENTRICITY>.0001923</ECCENTRICITY><INCLINATION>87.8887</INCLINATION><RA_OF_ASC_NODE>79.2304</RA_OF_ASC_NODE><ARG_OF_PERICENTER>89.4513</ARG_OF_PERICENTER><MEAN_ANOMALY>270.6836</MEAN_ANOMALY></meanElements><tleParameters><EPHEMERIS_TYPE>0</EPHEMERIS_TYPE><CLASSIFICATION_TYPE>U</CLASSIFICATION_TYPE><NORAD_CAT_ID>48073</NORAD_CAT_ID><ELEMENT_SET_NO>999</ELEMENT_SET_NO><REV_AT_EPOCH>17494</REV_AT_EPOCH><BSTAR>-.55191E-4</BSTAR><MEAN_MOTION_DOT>-.7E-7</MEAN_MOTION_DOT><MEAN_MOTION_DDOT>0</MEAN_MOTION_DDOT></tleParameters></data></segment></body></omm>
<omm id="CCSDS_OMM_VERS" version="2.0">
<header><CREATION_DATE/><ORIGINATOR/></header><body><segment><metadata><OBJECT_NAME>ONEWEB-0177</OBJECT_NAME><OBJECT_ID>2021-025AJ</OBJECT_ID><CENTER_NAME>EARTH</CENTER_NAME><REF_FRAME>TEME</REF_FRAME><TIME_SYSTEM>UTC</TIME_SYSTEM><MEAN_ELEMENT_THEORY>SGP4</MEAN_ELEMENT_THEORY></metadata><data><meanElements><EPOCH>2024-10-26T20:59:59.603424</EPOCH><MEAN_MOTION>13.13468518</MEAN_MOTION><ECCENTRICITY>.0001306</ECCENTRICITY><INCLINATION>87.8888</INCLINATION><RA_OF_ASC_NODE>79.2377</RA_OF_ASC_NODE><ARG_OF_PERICENTER>87.3230</ARG_OF_PERICENTER><MEAN_ANOMALY>272.8049</MEAN_ANOMALY></meanElements><tleParameters><EPHEMERIS_TYPE>0</EPHEMERIS_TYPE><CLASSIFICATION_TYPE>U</CLASSIFICATION_TYPE><NORAD_CAT_ID>48074</NORAD_CAT_ID><ELEMENT_SET_NO>999</ELEMENT_SET_NO><REV_AT_EPOCH>17513</REV_AT_EPOCH><BSTAR>-.77667E-3</BSTAR><MEAN_MOTION_DOT>-.271E-5</MEAN_MOTION_DOT><MEAN_MOTION_DDOT>0</MEAN_MOTION_DDOT></tleParameters></data></segment></body></omm>
<omm id="CCSDS_OMM_VERS" version="2.0">
<header><CREATION_DATE/><ORIGINATOR/></header><body><segment><metadata><OBJECT_NAME>ONEWEB-0178</OBJECT_NAME><OBJECT_ID>2021-025AK</OBJECT_ID><CENTER_NAME>EARTH</CENTER_NAME><REF_FRAME>TEME</REF_FRAME><TIME_SYSTEM>UTC</TIME_SYSTEM><MEAN_ELEMENT_THEORY>SGP4</MEAN_ELEMENT_THEORY></metadata><data><meanElements><EPOCH>2024-10-26T21:25:19.706880</EPOCH><MEAN_MOTION>13.13468025</MEAN_MOTION><ECCENTRICITY>.000149</ECCENTRICITY><INCLINATION>87.8894</INCLINATION><RA_OF_ASC_NODE>79.2617</RA_OF_ASC_NODE><ARG_OF_PERICENTER>88.3127</ARG_OF_PERICENTER><MEAN_ANOMALY>271.8173</MEAN_ANOMALY></meanElements><tleParameters><EPHEMERIS_TYPE>0</EPHEMERIS_TYPE><CLASSIFICATION_TYPE>U</CLASSIFICATION_TYPE><NORAD_CAT_ID>48075</NORAD_CAT_ID><ELEMENT_SET_NO>999</ELEMENT_SET_NO><REV_AT_EPOCH>17518</REV_AT_EPOCH><BSTAR>-.40908E-3</BSTAR><MEAN_MOTION_DOT>-.137E-5</MEAN_MOTION_DOT><MEAN_MOTION_DDOT>0</MEAN_MOTION_DDOT></tleParameters></data></segment></body></omm>
<omm id="CCSDS_OMM_VERS" version="2.0">
<header><CREATION_DATE/><ORIGINATOR/></header><body><segment><metadata><OBJECT_NAME>ONEWEB-0108</OBJECT_NAME><OBJECT_ID>2021-025AL</OBJECT_ID><CENTER_NAME>EARTH</CENTER_NAME><REF_FRAME>TEME</REF_FRAME><TIME_SYSTEM>UTC</TIME_SYSTEM><MEAN_ELEMENT_THEORY>SGP4</MEAN_ELEMENT_THEORY></metadata><data><meanElements><EPOCH>2024-10-26T20:28:00.790752</EPOCH><MEAN_MOTION>13.13468404</MEAN_MOTION><ECCENTRICITY>.0001569</ECCENTRICITY><INCLINATION>87.8890</INCLINATION><RA_OF_ASC_NODE>79.2389</RA_OF_ASC_NODE><ARG_OF_PERICENTER>102.8258</ARG_OF_PERICENTER><MEAN_ANOMALY>257.3047</MEAN_ANOMALY></meanElements><tleParameters><EPHEMERIS_TYPE>0</EPHEMERIS_TYPE><CLASSIFICATION_TYPE>U</CLASSIFICATION_TYPE><NORAD_CAT_ID>48076</NORAD_CAT_ID><ELEMENT_SET_NO>999</ELEMENT_SET_NO><REV_AT_EPOCH>17510</REV_AT_EPOCH><BSTAR>.56351E-3</BSTAR><MEAN_MOTION_DOT>.219E-5</MEAN_MOTION_DOT><MEAN_MOTION_DDOT>0</MEAN_MOTION_DDOT></tleParameters></data></segment></body></omm>
<omm id="CCSDS_OMM_VERS" version="2.0">
<header><CREATION_DATE/><ORIGINATOR/></header><body><segment><metadata><OBJECT_NAME>ONEWEB-0169</OBJECT_NAME><OBJECT_ID>2021-025AM</OBJECT_ID><CENTER_NAME>EARTH</CENTER_NAME><REF_FRAME>TEME</REF_FRAME><TIME_SYSTEM>UTC</TIME_SYSTEM><MEAN_ELEMENT_THEORY>SGP4</MEAN_ELEMENT_THEORY></metadata><data><meanElements><EPOCH>2024-10-26T21:13:41.359008</EPOCH><MEAN_MOTION>13.13467539</MEAN_MOTION><ECCENTRICITY>.0001587</ECCENTRICITY><INCLINATION>87.8890</INCLINATION><RA_OF_ASC_NODE>79.2462</RA_OF_ASC_NODE><ARG_OF_PERICENTER>104.7565</ARG_OF_PERICENTER><MEAN_ANOMALY>255.3740</MEAN_ANOMALY></meanElements><tleParameters><EPHEMERIS_TYPE>0</EPHEMERIS_TYPE><CLASSIFICATION_TYPE>U</CLASSIFICATION_TYPE><NORAD_CAT_ID>48077</NORAD_CAT_ID><ELEMENT_SET_NO>999</ELEMENT_SET_NO><REV_AT_EPOCH>17376</REV_AT_EPOCH><BSTAR>-.6496E-3</BSTAR><MEAN_MOTION_DOT>-.224E-5</MEAN_MOTION_DOT><MEAN_MOTION_DDOT>0</MEAN_MOTION_DDOT></tleParameters></data></segment></body></omm>

</ndm>
